ATLAS CENTAUR 2         
1 00694U 63047A   26111.88090546  .00002708  00000+0  32135-3 0  9993
2 00694  30.3531 314.2338 0546689 101.0047 265.2512 14.12271673137739
THOR AGENA D R/B        
1 00733U 64002A   26111.92097363  .00000127  00000+0  62491-4 0  9990
2 00733  99.1193 127.6113 0033733 131.5436 228.8648 14.34041330244494
SL-3 R/B                
1 00877U 64053B   26112.28398896  .00000104  00000+0  44361-4 0  9991
2 00877  65.0772 203.4217 0081056 278.5470  80.6451 14.61397175273160
SL-8 R/B                
1 02802U 67045B   26111.89508113  .00000183  00000+0  58442-4 0  9998
2 02802  74.0099 267.3936 0065185 264.4400  94.9321 14.45652325 95261
SL-8 R/B                
1 03230U 68040B   26112.29596009  .00001859  00000+0  13852-3 0  9992
2 03230  74.0312 224.5661 0023890  30.5610 329.6965 15.03539071 96560
OAO 2                   
1 03597U 68110A   26112.10690452  .00000152  00000+0  46168-4 0  9995
2 03597  34.9946  22.8053 0005768 192.5436 167.5111 14.47329776 25398
ISIS 1                  
1 03669U 69009A   26112.08349324  .00000064  00000+0  39750-4 0  9990
2 03669  88.4455 150.5645 1707187   1.6068 358.9579 11.30423620353434
SERT 2                  
1 04327U 70009A   26112.23949562  .00000020  00000+0  83496-4 0  9999
2 04327  99.2812  52.9638 0005728  58.9654 108.9037 13.58735055785809
SL-3 R/B                
1 05118U 71028B   26112.25152978  .00034054  00000+0  34531-3 0  9998
2 05118  81.2365 358.0762 0016570 122.4118 237.8743 15.64883851995478
ASTEX 1                 
1 05560U 71089A   26112.06800099  .00000314  00000+0  79907-4 0  9998
2 05560  92.7054 165.7709 0013455 302.6341  57.3566 14.50809619868598
SL-8 R/B                
1 05730U 71119B   26112.26930930  .00008481  00000+0  44127-3 0  9999
2 05730  73.8848  94.2077 0545488  51.6204 313.2659 14.38589797661751
OAO 3 (COPERNICUS)      
1 06153U 72065A   26112.15278971  .00000216  00000+0  48515-4 0  9992
2 06153  35.0064  49.6776 0006478 162.1446 215.1236 14.60028883852558
ATLAS CENTAUR R/B       
1 06155U 72065B   26112.20442436  .00000907  00000+0  12651-3 0  9997
2 06155  35.0022  50.7119 0033239  15.3626 344.8077 14.77800440847701
SL-8 R/B                
1 08459U 75112B   26111.97723715  .00000061  00000+0  28621-4 0  9993
2 08459  74.0595 299.2824 0015290  16.3056 343.8587 14.38224210638093
SL-3 R/B                
1 10114U 77057B   26112.21103866  .00009978  00000+0  20171-3 0  9998
2 10114  97.5824 286.1014 0008311 122.4680 237.7374 15.46650536675059
SEASAT 1                
1 10967U 78064A   26112.21239267  .00000202  00000+0  94971-4 0  9999
2 10967 108.0080 216.8158 0002796 262.6000  97.4828 14.46196420512804
SL-14 R/B               
1 11267U 79011B   26112.24212760  .00000429  00000+0  39839-4 0  9991
2 11267  82.5248  55.2356 0014370 272.5802  87.3773 14.91962790535270
