[{"OBJECT_NAME":"ATLAS CENTAUR 2","OBJECT_ID":"1963-047A","EPOCH":"2026-04-21T21:08:30.231744","MEAN_MOTION":14.12271673,"ECCENTRICITY":0.05466898,"INCLINATION":30.3531,"RA_OF_ASC_NODE":314.2338,"ARG_OF_PERICENTER":101.0047,"MEAN_ANOMALY":265.2512,"EPHEMERIS_TYPE":0,"CLASSIFICATION_TYPE":"U","NORAD_CAT_ID":694,"ELEMENT_SET_NO":999,"REV_AT_EPOCH":13773,"BSTAR":0.00032134769,"MEAN_MOTION_DOT":2.708e-5,"MEAN_MOTION_DDOT":0},{"OBJECT_NAME":"THOR AGENA D R/B","OBJECT_ID":"1964-002A","EPOCH":"2026-04-21T22:06:12.121632","MEAN_MOTION":14.3404133,"ECCENTRICITY":0.00337332,"INCLINATION":99.1193,"RA_OF_ASC_NODE":127.6113,"ARG_OF_PERICENTER":131.5436,"MEAN_ANOMALY":228.8648,"EPHEMERIS_TYPE":0,"CLASSIFICATION_TYPE":"U","NORAD_CAT_ID":733,"ELEMENT_SET_NO":999,"REV_AT_EPOCH":24449,"BSTAR":6.2490821e-5,"MEAN_MOTION_DOT":1.27e-6,"MEAN_MOTION_DDOT":0},{"OBJECT_NAME":"SL-3 R/B","OBJECT_ID":"1964-053B","EPOCH":"2026-04-22T06:48:56.646144","MEAN_MOTION":14.61397175,"ECCENTRICITY":0.00810562,"INCLINATION":65.0772,"RA_OF_ASC_NODE":203.4217,"ARG_OF_PERICENTER":278.547,"MEAN_ANOMALY":80.6451,"EPHEMERIS_TYPE":0,"CLASSIFICATION_TYPE":"U","NORAD_CAT_ID":877,"ELEMENT_SET_NO":999,"REV_AT_EPOCH":27316,"BSTAR":4.4361104e-5,"MEAN_MOTION_DOT":1.04e-6,"MEAN_MOTION_DDOT":0},{"OBJECT_NAME":"SL-8 R/B","OBJECT_ID":"1967-045B","EPOCH":"2026-04-21T21:28:55.009632","MEAN_MOTION":14.45652325,"ECCENTRICITY":0.0065185,"INCLINATION":74.0099,"RA_OF_ASC_NODE":267.3936,"ARG_OF_PERICENTER":264.44,"MEAN_ANOMALY":94.9321,"EPHEMERIS_TYPE":0,"CLASSIFICATION_TYPE":"U","NORAD_CAT_ID":2802,"ELEMENT_SET_NO":999,"REV_AT_EPOCH":9526,"BSTAR":5.8442e-5,"MEAN_MOTION_DOT":1.83e-6,"MEAN_MOTION_DDOT":0},{"OBJECT_NAME":"SL-8 R/B","OBJECT_ID":"1968-040B","EPOCH":"2026-04-22T07:06:10.951776","MEAN_MOTION":15.03539071,"ECCENTRICITY":0.00238902,"INCLINATION":74.0312,"RA_OF_ASC_NODE":224.5661,"ARG_OF_PERICENTER":30.561,"MEAN_ANOMALY":329.6965,"EPHEMERIS_TYPE":0,"CLASSIFICATION_TYPE":"U","NORAD_CAT_ID":3230,"ELEMENT_SET_NO":999,"REV_AT_EPOCH":9656,"BSTAR":0.00013852228,"MEAN_MOTION_DOT":1.859e-5,"MEAN_MOTION_DDOT":0},{"OBJECT_NAME":"OAO 2","OBJECT_ID":"1968-110A","EPOCH":"2026-04-22T02:33:56.550528","MEAN_MOTION":14.47329776,"ECCENTRICITY":0.00057683,"INCLINATION":34.9946,"RA_OF_ASC_NODE":22.8053,"ARG_OF_PERICENTER":192.5436,"MEAN_ANOMALY":167.5111,"EPHEMERIS_TYPE":0,"CLASSIFICATION_TYPE":"U","NORAD_CAT_ID":3597,"ELEMENT_SET_NO":999,"REV_AT_EPOCH":2539,"BSTAR":4.6168471e-5,"MEAN_MOTION_DOT":1.52e-6,"MEAN_MOTION_DDOT":0},{"OBJECT_NAME":"ISIS 1","OBJECT_ID":"1969-009A","EPOCH":"2026-04-22T02:00:13.815936","MEAN_MOTION":11.3042362,"ECCENTRICITY":0.17071871,"INCLINATION":88.4455,"RA_OF_ASC_NODE":150.5645,"ARG_OF_PERICENTER":1.6068,"MEAN_ANOMALY":358.9579,"EPHEMERIS_TYPE":0,"CLASSIFICATION_TYPE":"U","NORAD_CAT_ID":3669,"ELEMENT_SET_NO":999,"REV_AT_EPOCH":35343,"BSTAR":3.9749669e-5,"MEAN_MOTION_DOT":6.4e-7,"MEAN_MOTION_DDOT":0},{"OBJECT_NAME":"SERT 2","OBJECT_ID":"1970-009A","EPOCH":"2026-04-22T05:44:52.421568","MEAN_MOTION":13.58735055,"ECCENTRICITY":0.00057284,"INCLINATION":99.2812,"RA_OF_ASC_NODE":52.9638,"ARG_OF_PERICENTER":58.9654,"MEAN_ANOMALY":108.9037,"EPHEMERIS_TYPE":0,"CLASSIFICATION_TYPE":"U","NORAD_CAT_ID":4327,"ELEMENT_SET_NO":999,"REV_AT_EPOCH":78580,"BSTAR":8.3496475e-5,"MEAN_MOTION_DOT":2.0e-7,"MEAN_MOTION_DDOT":0},{"OBJECT_NAME":"SL-3 R/B","OBJECT_ID":"1971-028B","EPOCH":"2026-04-22T06:02:12.172992","MEAN_MOTION":15.64883851,"ECCENTRICITY":0.00165704,"INCLINATION":81.2365,"RA_OF_ASC_NODE":358.0762,"ARG_OF_PERICENTER":122.4118,"MEAN_ANOMALY":237.8743,"EPHEMERIS_TYPE":0,"CLASSIFICATION_TYPE":"U","NORAD_CAT_ID":5118,"ELEMENT_SET_NO":999,"REV_AT_EPOCH":99547,"BSTAR":0.00034530805,"MEAN_MOTION_DOT":0.00034054,"MEAN_MOTION_DDOT":0},{"OBJECT_NAME":"ASTEX 1","OBJECT_ID":"1971-089A","EPOCH":"2026-04-22T01:37:55.285536","MEAN_MOTION":14.50809619,"ECCENTRICITY":0.0013455,"INCLINATION":92.7054,"RA_OF_ASC_NODE":165.7709,"ARG_OF_PERICENTER":302.6341,"MEAN_ANOMALY":57.3566,"EPHEMERIS_TYPE":0,"CLASSIFICATION_TYPE":"U","NORAD_CAT_ID":5560,"ELEMENT_SET_NO":999,"REV_AT_EPOCH":86859,"BSTAR":7.9906803e-5,"MEAN_MOTION_DOT":3.14e-6,"MEAN_MOTION_DDOT":0},{"OBJECT_NAME":"SL-8 R/B","OBJECT_ID":"1971-119B","EPOCH":"2026-04-22T06:27:48.323520","MEAN_MOTION":14.38589797,"ECCENTRICITY":0.05454886,"INCLINATION":73.8848,"RA_OF_ASC_NODE":94.2077,"ARG_OF_PERICENTER":51.6204,"MEAN_ANOMALY":313.2659,"EPHEMERIS_TYPE":0,"CLASSIFICATION_TYPE":"U","NORAD_CAT_ID":5730,"ELEMENT_SET_NO":999,"REV_AT_EPOCH":66175,"BSTAR":0.00044126742,"MEAN_MOTION_DOT":8.481e-5,"MEAN_MOTION_DDOT":0},{"OBJECT_NAME":"OAO 3 (COPERNICUS)","OBJECT_ID":"1972-065A","EPOCH":"2026-04-22T03:40:01.030944","MEAN_MOTION":14.60028883,"ECCENTRICITY":0.00064784,"INCLINATION":35.0064,"RA_OF_ASC_NODE":49.6776,"ARG_OF_PERICENTER":162.1446,"MEAN_ANOMALY":215.1236,"EPHEMERIS_TYPE":0,"CLASSIFICATION_TYPE":"U","NORAD_CAT_ID":6153,"ELEMENT_SET_NO":999,"REV_AT_EPOCH":85255,"BSTAR":4.851514e-5,"MEAN_MOTION_DOT":2.16e-6,"MEAN_MOTION_DDOT":0},{"OBJECT_NAME":"ATLAS CENTAUR R/B","OBJECT_ID":"1972-065B","EPOCH":"2026-04-22T04:54:22.264704","MEAN_MOTION":14.7780044,"ECCENTRICITY":0.00332398,"INCLINATION":35.0022,"RA_OF_ASC_NODE":50.7119,"ARG_OF_PERICENTER":15.3626,"MEAN_ANOMALY":344.8077,"EPHEMERIS_TYPE":0,"CLASSIFICATION_TYPE":"U","NORAD_CAT_ID":6155,"ELEMENT_SET_NO":999,"REV_AT_EPOCH":84770,"BSTAR":0.00012651332,"MEAN_MOTION_DOT":9.07e-6,"MEAN_MOTION_DDOT":0},{"OBJECT_NAME":"SL-8 R/B","OBJECT_ID":"1975-112B","EPOCH":"2026-04-21T23:27:13.289760","MEAN_MOTION":14.3822421,"ECCENTRICITY":0.00152905,"INCLINATION":74.0595,"RA_OF_ASC_NODE":299.2824,"ARG_OF_PERICENTER":16.3056,"MEAN_ANOMALY":343.8587,"EPHEMERIS_TYPE":0,"CLASSIFICATION_TYPE":"U","NORAD_CAT_ID":8459,"ELEMENT_SET_NO":999,"REV_AT_EPOCH":63809,"BSTAR":2.8621067e-5,"MEAN_MOTION_DOT":6.1e-7,"MEAN_MOTION_DDOT":0},{"OBJECT_NAME":"SL-3 R/B","OBJECT_ID":"1977-057B","EPOCH":"2026-04-22T05:03:53.740224","MEAN_MOTION":15.46650536,"ECCENTRICITY":0.00083114,"INCLINATION":97.5824,"RA_OF_ASC_NODE":286.1014,"ARG_OF_PERICENTER":122.468,"MEAN_ANOMALY":237.7374,"EPHEMERIS_TYPE":0,"CLASSIFICATION_TYPE":"U","NORAD_CAT_ID":10114,"ELEMENT_SET_NO":999,"REV_AT_EPOCH":67505,"BSTAR":0.00020171136,"MEAN_MOTION_DOT":9.978e-5,"MEAN_MOTION_DDOT":0},{"OBJECT_NAME":"SEASAT 1","OBJECT_ID":"1978-064A","EPOCH":"2026-04-22T05:05:50.726688","MEAN_MOTION":14.4619642,"ECCENTRICITY":0.00027965,"INCLINATION":108.008,"RA_OF_ASC_NODE":216.8158,"ARG_OF_PERICENTER":262.6,"MEAN_ANOMALY":97.4828,"EPHEMERIS_TYPE":0,"CLASSIFICATION_TYPE":"U","NORAD_CAT_ID":10967,"ELEMENT_SET_NO":999,"REV_AT_EPOCH":51280,"BSTAR":9.4970573e-5,"MEAN_MOTION_DOT":2.02e-6,"MEAN_MOTION_DDOT":0},{"OBJECT_NAME":"SL-14 R/B","OBJECT_ID":"1979-011B","EPOCH":"2026-04-22T05:48:39.824640","MEAN_MOTION":14.9196279,"ECCENTRICITY":0.00143709,"INCLINATION":82.5248,"RA_OF_ASC_NODE":55.2356,"ARG_OF_PERICENTER":272.5802,"MEAN_ANOMALY":87.3773,"EPHEMERIS_TYPE":0,"CLASSIFICATION_TYPE":"U","NORAD_CAT_ID":11267,"ELEMENT_SET_NO":999,"REV_AT_EPOCH":53527,"BSTAR":3.9839344e-5,"MEAN_MOTION_DOT":4.29e-6,"MEAN_MOTION_DDOT":0}]
